[{"OBJECT_NAME":"FLOCK 4H-4","OBJECT_ID":"2025-276AT","EPOCH":"2026-03-09T18:25:08.103360","MEAN_MOTION":15.18459011,"ECCENTRICITY":0.00044168,"INCLINATION":97.4291,"RA_OF_ASC_NODE":144.0059,"ARG_OF_PERICENTER":7.9405,"MEAN_ANOMALY":352.1898,"EPHEMERIS_TYPE":0,"CLASSIFICATION_TYPE":"U","NORAD_CAT_ID":66707,"ELEMENT_SET_NO":999,"REV_AT_EPOCH":1532,"BSTAR":0.0003950899,"MEAN_MOTION_DOT":8.077e-5,"MEAN_MOTION_DDOT":0},{"OBJECT_NAME":"DEAR-5","OBJECT_ID":"2025-296B","EPOCH":"2026-03-09T23:49:47.465472","MEAN_MOTION":15.17623217,"ECCENTRICITY":0.00202983,"INCLINATION":41.3572,"RA_OF_ASC_NODE":323.7156,"ARG_OF_PERICENTER":262.6695,"MEAN_ANOMALY":97.1819,"EPHEMERIS_TYPE":0,"CLASSIFICATION_TYPE":"U","NORAD_CAT_ID":67070,"ELEMENT_SET_NO":999,"REV_AT_EPOCH":1320,"BSTAR":0.00032921308,"MEAN_MOTION_DOT":6.585e-5,"MEAN_MOTION_DDOT":0}]
